ONEWEB-0709             
1 55172U 23004AJ  25137.60558414 -.00000417  00000+0 -12133-2 0  9995
2 55172  87.8819  99.9452 0002247 108.6065 251.5307 13.11415096114024
ONEWEB-0710             
1 55173U 23004AK  25137.57633397 -.00000021  00000+0 -86138-4 0  9995
2 55173  87.9053  84.6556 0002194  81.2545 278.8835 13.17647488115489
ONEWEB-0711             
1 55174U 23004AL  25137.65307242  .00000533  00000+0  14682-2 0  9991
2 55174  87.8818  99.9037 0002760  76.0938 284.0497 13.11417302113999
ONEWEB-0713             
1 55175U 23004AM  25137.90060806  .00000008  00000+0 -13573-4 0  9990
2 55175  87.8817  99.8620 0002288  80.0801 280.0585 13.11414317114016
ONEWEB-0715             
1 55176U 23004AN  25137.59032552  .00000244  00000+0  65334-3 0  9995
2 55176  87.8816  99.9241 0002237  92.2961 267.8423 13.11416336114019
ONEWEB-0716             
1 55177U 23004AP  25137.79740561 -.00000043  00000+0 -14458-3 0  9994
2 55177  87.9054  84.6105 0001824  78.6441 281.4896 13.17649505115511
ONEWEB-0717             
1 55178U 23004AQ  25137.78051302  .00000079  00000+0  17149-3 0  9999
2 55178  87.9054  84.5733 0002819  79.3500 280.7949 13.17647359115568
ONEWEB-0719             
1 55179U 23004AR  25137.86656931  .00000010  00000+0 -78032-5 0  9994
2 55179  87.9055  84.5402 0001942  75.5428 284.5919 13.17647400115528
ONEWEB-0530             
1 55796U 23029A   25137.86729583  .00000028  00000+0  36239-4 0  9990
2 55796  87.9279 353.2064 0002226  74.7577 285.3802 13.20771373108964
ONEWEB-0534             
1 55797U 23029B   25137.85464191  .00000144  00000+0  32142-3 0  9998
2 55797  87.9279 353.2162 0001713  83.8828 276.2501 13.20773095108962
ONEWEB-0556             
1 55798U 23029C   25137.10338802  .00000088  00000+0  18444-3 0  9992
2 55798  87.9279 353.3575 0001764  60.0164 300.1144 13.20772573108867
ONEWEB-0562             
1 55799U 23029D   25137.84833717  .00000029  00000+0  38671-4 0  9999
2 55799  87.9279 353.2026 0002360  63.3464 296.7911 13.20772829108967
ONEWEB-0563             
1 55800U 23029E   25137.84201865  .00000062  00000+0  12083-3 0  9990
2 55800  87.9279 353.2183 0001480  85.4749 274.6554 13.20773281108957
ONEWEB-0564             
1 55801U 23029F   25137.83570039 -.00000022  00000+0 -86300-4 0  9994
2 55801  87.9284 353.2083 0002021  76.9941 283.1418 13.20774038108960
ONEWEB-0638             
1 55802U 23029G   25137.88506549 -.00000130  00000+0 -38442-3 0  9998
2 55802  87.9060   8.4035 0001844  66.7552 293.3772 13.14503688107460
ONEWEB-0639             
1 55803U 23029H   25137.95059087  .00000017  00000+0  10016-4 0  9997
2 55803  87.9252  23.5531 0000911 115.2496 244.8731 13.19727630106773
ONEWEB-0640             
1 55804U 23029J   25137.59010709 -.00000266  00000+0 -75182-3 0  9998
2 55804  87.9060   8.4500 0001344  60.3193 299.8071 13.14502065107444
ONEWEB-0641             
1 55805U 23029K   25137.94586914  .00000018  00000+0  11711-4 0  9996
2 55805  87.9246  23.5268 0001649  85.6729 274.4592 13.19725014106782
ONEWEB-0642             
1 55806U 23029L   25137.94112595  .00000140  00000+0  31854-3 0  9992
2 55806  87.9250  23.5636 0001352 110.9416 249.1861 13.19723762106778
ONEWEB-0643             
1 55807U 23029M   25137.17938931  .00000153  00000+0  37921-3 0  9993
2 55807  87.9064   8.5132 0001703 107.8599 252.2717 13.14502750107361
ONEWEB-0644             
1 55808U 23029N   25137.40566653 -.00000023  00000+0 -89544-4 0  9995
2 55808  87.9254  23.6729 0001507  96.1228 264.0076 13.19724336106701
ONEWEB-0645             
1 55809U 23029P   25137.93243462  .00000087  00000+0  18464-3 0  9994
2 55809  87.9252  23.5650 0001502  77.8098 282.3202 13.19726909106777
ONEWEB-0646             
1 55810U 23029Q   25137.65916770 -.00000293  00000+0 -76461-3 0  9996
2 55810  87.9248  23.6131 0001736  89.8818 270.2513 13.19724884106727
ONEWEB-0648             
1 55811U 23029R   25137.90884696 -.00000062  00000+0 -20060-3 0  9994
2 55811  87.9064   8.3441 0000886 100.4404 259.6825 13.14502171107461
ONEWEB-0649             
1 55812U 23029S   25137.92532830  .00000030  00000+0  43030-4 0  9993
2 55812  87.9247  23.5501 0001344  87.3616 272.7670 13.19723796106791
ONEWEB-0650             
1 55813U 23029T   25137.92059127  .00000030  00000+0  41794-4 0  9992
2 55813  87.9249  23.5599 0001680  85.6453 274.4872 13.19724229106766
ONEWEB-0652             
1 55814U 23029U   25137.88981256 -.00000164  00000+0 -47733-3 0  9993
2 55814  87.9062   8.3578 0001945  80.9147 279.2202 13.14503448107438
ONEWEB-0653             
1 55815U 23029V   25137.87396772  .00000076  00000+0  16967-3 0  9991
2 55815  87.9066   8.3495 0001823  75.1397 284.9934 13.14502458107467
ONEWEB-0654             
1 55816U 23029W   25137.86920923  .00000157  00000+0  38802-3 0  9994
2 55816  87.9063   8.3516 0002125  75.4406 284.6959 13.14502333107487
ONEWEB-0656             
1 55817U 23029X   25137.82938884  .00000063  00000+0  12233-3 0  9992
2 55817  87.9281 353.1504 0002222  79.2560 280.8824 13.20769585108963
ONEWEB-0657             
1 55818U 23029Y   25137.91584971  .00000061  00000+0  12091-3 0  9997
2 55818  87.9249  23.5658 0002556  90.6547 269.4879 13.19724406106779
ONEWEB-0658             
1 55819U 23029Z   25137.91111451 -.00000007  00000+0 -49767-4 0  9990
2 55819  87.9250  23.5003 0001532  96.0911 264.0396 13.19724494106787
ONEWEB-0660             
1 55820U 23029AA  25137.92312191  .00000147  00000+0  36245-3 0  9996
2 55820  87.9060   8.3125 0001444  78.7900 281.3391 13.14502266107471
ONEWEB-0661             
1 55821U 23029AB  25137.88190729 -.00000050  00000+0 -17064-3 0  9996
2 55821  87.9062   8.3911 0001547  75.3272 284.8029 13.14505152107457
ONEWEB-0662             
1 55822U 23029AC  25137.91677246  .00000234  00000+0  59673-3 0  9999
2 55822  87.9064   8.3910 0001378  80.7598 279.3687 13.14501258107500
ONEWEB-0663             
1 55823U 23029AD  25137.88775077  .00000039  00000+0  63665-4 0  9997
2 55823  87.9280 353.1946 0001366  88.3478 271.7812 13.20836702108968
ONEWEB-0664             
1 55824U 23029AE  25137.51375255 -.00000092  00000+0 -25857-3 0  9993
2 55824  87.9279 353.2895 0001784  71.3625 288.7702 13.20770357108915
ONEWEB-0665             
1 55825U 23029AF  25137.87872067  .00000134  00000+0  32811-3 0  9999
2 55825  87.9061   8.3662 0001580  83.2578 276.8731 13.14502368107476
ONEWEB-0666             
1 55826U 23029AG  25137.35592544 -.00000051  00000+0 -15664-3 0  9999
2 55826  87.9281 353.3098 0002216  83.2959 276.8427 13.20770643108908
ONEWEB-0667             
1 55827U 23029AH  25137.87989509  .00000037  00000+0  58062-4 0  9990
2 55827  87.9280 353.1377 0001634  81.2245 278.9073 13.20769332108964
ONEWEB-0669             
1 55828U 23029AJ  25137.87516143  .00000051  00000+0  94290-4 0  9990
2 55828  87.9277 353.1736 0002386  69.8534 290.2856 13.20773284108965
ONEWEB-0670             
1 55829U 23029AK  25137.93264124  .00000300  00000+0  77552-3 0  9995
2 55829  87.9066   8.3724 0001572  70.7986 289.3314 13.14502715107505
ONEWEB-0671             
1 55830U 23029AL  25137.90637856 -.00000046  00000+0 -14818-3 0  9995
2 55830  87.9248  23.5609 0001635  76.3696 283.7618 13.19725362106762
ONEWEB-0672             
1 55831U 23029AM  25137.87042532  .00000010  00000+0 -63647-5 0  9999
2 55831  87.9277 353.1608 0002153  85.8619 274.2761 13.20770590108965
ONEWEB-0673             
1 55832U 23029AN  25137.42778579  .00000003  00000+0 -23712-4 0  9998
2 55832  87.9248  23.6198 0001669  87.3349 272.7975 13.19724873106706
ONEWEB-0674             
1 55833U 23029AP  25137.90091966 -.00000167  00000+0 -48388-3 0  9997
2 55833  87.9062   8.3671 0001612  66.2985 293.8313 13.14502179107481
ONEWEB-0675             
1 55834U 23029AQ  25137.44357177  .00000025  00000+0  31117-4 0  9990
2 55834  87.9252  23.6637 0002046  89.1293 271.0074 13.19723562106727
ONEWEB-0720             
1 55835U 23029AR  25137.20822124  .00000044  00000+0  76846-4 0  9993
2 55835  87.9250  23.7070 0001422  85.6621 274.4674 13.19723974106619
ONEWEB-0537             
1 56046U 23043A   25137.70642571  .00000077  00000+0  16783-3 0  9994
2 56046  87.9025 307.5869 0002042  96.2921 263.8442 13.16593901106924
ONEWEB-0538             
1 56047U 23043B   25137.70009242  .00000098  00000+0  22307-3 0  9999
2 56047  87.9016 307.6098 0001863 104.0559 256.0779 13.16592784106931
ONEWEB-0546             
1 56048U 23043C   25137.91541891  .00000136  00000+0  32222-3 0  9994
2 56048  87.9026 307.5375 0002519  91.9018 268.2401 13.16594002106957
ONEWEB-0547             
1 56049U 23043D   25137.73573409  .00000038  00000+0  61346-4 0  9996
2 56049  87.9235 322.8477 0001747  97.9080 262.2252 13.21824081105989
ONEWEB-0548             
1 56050U 23043E   25137.71275633 -.00000170  00000+0 -47776-3 0  9993
2 56050  87.9018 307.6171 0001280  65.9301 294.1964 13.16595531106923
ONEWEB-0549             
1 56051U 23043F   25137.80273467 -.00000289  00000+0 -73225-3 0  9996
2 56051  87.9246 322.8413 0001717 101.9232 258.2094 13.21827004105994
ONEWEB-0550             
1 56052U 23043G   25137.79012822  .00000029  00000+0  39876-4 0  9996
2 56052  87.9243 322.8392 0001847  84.6538 275.4806 13.21827709105992
ONEWEB-0551             
1 56053U 23043H   25137.80923377 -.00000066  00000+0 -21022-3 0  9991
2 56053  87.9053 338.0445 0001579  94.2212 265.9099 13.15549978104414
ONEWEB-0552             
1 56054U 23043J   25137.78382324  .00000005  00000+0 -19771-4 0  9991
2 56054  87.9243 322.8494 0001475  91.5701 268.5602 13.21822789105993
ONEWEB-0553             
1 56055U 23043K   25137.92175242  .00000112  00000+0  26009-3 0  9996
2 56055  87.9017 307.5631 0002125  87.3209 272.8165 13.16593443106961
ONEWEB-0554             
1 56056U 23043L   25137.45308730  .00000071  00000+0  15138-3 0  9990
2 56056  87.9013 307.6859 0001727  84.4926 275.6402 13.16593281106888
